[{"OBJECT_NAME":"COSMOS 2538","OBJECT_ID":"2019-039D","EPOCH":"2026-03-09T23:22:28.343424","MEAN_MOTION":15.19536029,"ECCENTRICITY":0.00437345,"INCLINATION":97.5929,"RA_OF_ASC_NODE":147.7512,"ARG_OF_PERICENTER":31.8471,"MEAN_ANOMALY":328.5393,"EPHEMERIS_TYPE":0,"CLASSIFICATION_TYPE":"U","NORAD_CAT_ID":44424,"ELEMENT_SET_NO":999,"REV_AT_EPOCH":36483,"BSTAR":0.00035711669,"MEAN_MOTION_DOT":7.713e-5,"MEAN_MOTION_DDOT":0},{"OBJECT_NAME":"STARLINK-3629","OBJECT_ID":"2022-017G","EPOCH":"2026-03-09T22:13:51.528576","MEAN_MOTION":15.0883786,"ECCENTRICITY":0.00014289,"INCLINATION":53.2186,"RA_OF_ASC_NODE":338.0565,"ARG_OF_PERICENTER":87.9203,"MEAN_ANOMALY":272.1953,"EPHEMERIS_TYPE":0,"CLASSIFICATION_TYPE":"U","NORAD_CAT_ID":51774,"ELEMENT_SET_NO":999,"REV_AT_EPOCH":22260,"BSTAR":2.9722732e-5,"MEAN_MOTION_DOT":1.85e-6,"MEAN_MOTION_DDOT":0}]
